[{"OBJECT_NAME":"ACCENTURE-1","OBJECT_ID":"2025-276DF","EPOCH":"2026-03-09T18:24:17.968032","MEAN_MOTION":15.19190222,"ECCENTRICITY":0.0001861,"INCLINATION":97.4232,"RA_OF_ASC_NODE":144.079,"ARG_OF_PERICENTER":116.0656,"MEAN_ANOMALY":244.077,"EPHEMERIS_TYPE":0,"CLASSIFICATION_TYPE":"U","NORAD_CAT_ID":66767,"ELEMENT_SET_NO":999,"REV_AT_EPOCH":1533,"BSTAR":0.00024177646,"MEAN_MOTION_DOT":5.02e-5,"MEAN_MOTION_DDOT":0},{"OBJECT_NAME":"OBJECT E","OBJECT_ID":"2026-027E","EPOCH":"2026-03-09T23:02:51.074304","MEAN_MOTION":15.18126455,"ECCENTRICITY":0.00095432,"INCLINATION":97.4916,"RA_OF_ASC_NODE":197.9906,"ARG_OF_PERICENTER":204.0559,"MEAN_ANOMALY":156.0231,"EPHEMERIS_TYPE":0,"CLASSIFICATION_TYPE":"U","NORAD_CAT_ID":67750,"ELEMENT_SET_NO":999,"REV_AT_EPOCH":390,"BSTAR":0.00052617812,"MEAN_MOTION_DOT":0.00010689,"MEAN_MOTION_DDOT":0}]
